[{"OBJECT_NAME":"STARLINK-4283","OBJECT_ID":"2022-076AG","EPOCH":"2026-03-09T10:23:06.250272","MEAN_MOTION":15.08838531,"ECCENTRICITY":0.00011115,"INCLINATION":53.2179,"RA_OF_ASC_NODE":85.2732,"ARG_OF_PERICENTER":91.6453,"MEAN_ANOMALY":268.4667,"EPHEMERIS_TYPE":0,"CLASSIFICATION_TYPE":"U","NORAD_CAT_ID":53016,"ELEMENT_SET_NO":999,"REV_AT_EPOCH":20294,"BSTAR":-3.9622039e-5,"MEAN_MOTION_DOT":-9.18e-6,"MEAN_MOTION_DDOT":0},{"OBJECT_NAME":"RAISE-4","OBJECT_ID":"2025-297B","EPOCH":"2026-03-09T23:25:57.718272","MEAN_MOTION":15.08174958,"ECCENTRICITY":0.00127133,"INCLINATION":97.4953,"RA_OF_ASC_NODE":219.2703,"ARG_OF_PERICENTER":22.7159,"MEAN_ANOMALY":337.4629,"EPHEMERIS_TYPE":0,"CLASSIFICATION_TYPE":"U","NORAD_CAT_ID":67073,"ELEMENT_SET_NO":999,"REV_AT_EPOCH":1293,"BSTAR":0.00037087145,"MEAN_MOTION_DOT":5.682e-5,"MEAN_MOTION_DDOT":0}]
