STARLINK-4283           
1 53016U 22076AG  26068.43271123 -.00000918  00000+0 -39622-4 0  9992
2 53016  53.2179  85.2732 0001111  91.6453 268.4667 15.08838531202941
RAISE-4                 
1 67073U 25297B   26068.97636248  .00005682  00000+0  37087-3 0  9993
2 67073  97.4953 219.2703 0012713  22.7159 337.4629 15.08174958 12933
